1 08820U 76039A   03014.96647604 -.00000009  00000-0  10000-3 0  9245
2 08820 109.8350 129.1325 0044310 334.1554  25.6827  6.38664731367275
